{
    "links": {
        "self": "http://www.neowsapp.com/rest/v1/neo/54054374?api_key=iIulBulltgU6a56xZRHN4H3l9WmuAYTsLGpBGhQ2"
    },
    "id": "54054374",
    "neo_reference_id": "54054374",
    "name": "(2020 RE8)",
    "designation": "2020 RE8",
    "nasa_jpl_url": "http://ssd.jpl.nasa.gov/sbdb.cgi?sstr=54054374",
    "absolute_magnitude_h": 25.313,
    "estimated_diameter": {
        "kilometers": {
            "estimated_diameter_min": 0.0230120324,
            "estimated_diameter_max": 0.0514564687
        },
        "meters": {
            "estimated_diameter_min": 23.0120323886,
            "estimated_diameter_max": 51.4564687212
        },
        "miles": {
            "estimated_diameter_min": 0.0142990096,
            "estimated_diameter_max": 0.0319735574
        },
        "feet": {
            "estimated_diameter_min": 75.4987963417,
            "estimated_diameter_max": 168.8204408394
        }
    },
    "is_potentially_hazardous_asteroid": false,
    "close_approach_data": [
        {
            "close_approach_date": "2020-09-23",
            "close_approach_date_full": "2020-Sep-23 02:24",
            "epoch_date_close_approach": 1600827840000,
            "relative_velocity": {
                "kilometers_per_second": "10.649278329",
                "kilometers_per_hour": "38337.4019844526",
                "miles_per_hour": "23821.3706941728"
            },
            "miss_distance": {
                "astronomical": "0.0463753724",
                "lunar": "18.0400198636",
                "kilometers": "6937656.931496788",
                "miles": "4310860.1199921544"
            },
            "orbiting_body": "Earth"
        }
    ],
    "orbital_data": {
        "orbit_id": "3",
        "orbit_determination_date": "2020-09-23 07:12:12",
        "first_observation_date": "2020-09-14",
        "last_observation_date": "2020-09-23",
        "data_arc_in_days": 9,
        "observations_used": 18,
        "orbit_uncertainty": "8",
        "minimum_orbit_intersection": ".0068243",
        "jupiter_tisserand_invariant": "4.027",
        "epoch_osculation": "2459107.5",
        "eccentricity": ".4585850098807053",
        "semi_major_axis": "1.727553861215413",
        "inclination": "7.693550150793255",
        "ascending_node_longitude": "4.115725247906639",
        "orbital_period": "829.365225271358",
        "perihelion_distance": ".9353235567004923",
        "perihelion_argument": "41.33778043884578",
        "aphelion_distance": "2.519784165730334",
        "perihelion_time": "2459150.120349039319",
        "mean_anomaly": "341.4999168199574",
        "mean_motion": ".4340669092825932",
        "equinox": "J2000",
        "orbit_class": {
            "orbit_class_type": "APO",
            "orbit_class_description": "Near-Earth asteroid orbits which cross the Earth’s orbit similar to that of 1862 Apollo",
            "orbit_class_range": "a (semi-major axis) > 1.0 AU; q (perihelion) < 1.017 AU"
        }
    },
    "is_sentry_object": false
}